Nombre,Teléfono 1,Teléfono 2,Domicilio,Horario,Descripción,Latitud,Longitud
Agua Azul ,(33) 3619-0328,(33) 3619-0333,"Calzada Independencia Sur 973, Zona Centro-Sur. Guadalajara, Jalisco.",Lunes a Domingo de 6:00 a.m. a 7:00 p.m.,"Este parque público data de finales del siglo XVIII. Inició siendo un lugar de recreo para las familias tapatías, a las cuales se les permitía pasear en carruajes o montados a caballo por sus calles interiores. Asimismo, en su lago se podía disfrutar de un paseo en lancha. Posteriormente se transformó en parque zoológico, y también, durante muchos años, fue anfitrión de las Fiestas de Octubre. A partir de 1992 se reinauguró como Centro de Cultura Ambiental. ?

Al ingresar al parque se observa una gran esfera de aluminio que corresponde al mariposario llamado ""La Casa de las Mariposas"" y a través de un túnel se puede ingresar para apreciar en toda su majestuosidad, las diferentes mariposas que allí se mantienen y que corresponden a las que habitan en la región. Del mismo modo el aviario y las jaulas individuales están acondicionadas al hábitat natural de las aves que albergan para que el público pueda gozar de su singular belleza. Por otra parte, y con el propósito de proteger las especies de México en peligro de extinción, se tiene una clínica de reproducción que funciona de manera exitosa. 

Existe también un orquidario de forma piramidal, en donde se exhiben los ejemplares más exóticos que podamos encontrar de orquídeas de la región el cual cuenta con un clima tropical-húmedo controlado durante todo el tiempo. Año con año se realizan exposiciones durante los meses de Marzo y Octubre en las que participan las asociaciones de orquideología de todo el país.",20.66194,-103.349483
Avenida Américas,,,"Entre las Avs. Vallarta y Ávila Camacho. Guadalajara, Jalisco.
",,"En 1958 se inauguro ya la ornamentada avenida, con los bustos en bronce de veintitrés ilustres hombres americanos que han dado gloria a sus países de origen, entre ellos: Hidalgo, José Martí, Rubén Darío, Simón Bolívar, Abraham Lincoln, Bernardo O'Higgins, etc. En la parte anterior de los pedestales que los sostienen, se lee en letras de bronce el nombre de procedencia y país que le rinde honores.",20.718068,-103.388179
Avenida Chapultepec,,,"Entre las Avs. México y Niños Héroes. Guadalajara, Jalisco. 
",,"Entre todas las avenidas de la ciudad destaca ésta por su amplitud, monumentos, arboledas y construcciones modernas, conociéndose el área como ""Zona Rosa"". Tiene la avenida un ancho camellón central con bancas para descanso; fuentes, esculturas en bronce de cada uno de los Niños Héroes y de Ignacio Zaragoza, así como dos libros también en bronce sobre pedestal, con textos de Mariano Otero e Ignacio L. Vallarta, a ambos lados del cruce en la Av. Vallarta. En la acera oriente, entre las calles de Morelos y Justo Sierra puede admirarse otro monumento en bronce, que es un busto del poeta Pedro Garfias; el sitio es conocido como Rincón Sevillano.",20.676688,-103.368696
Barranca de Colimilla o del Río Santíago,,,"Por el camino a la Colimilla y Manantlán. Guadalajara, Jalisco.",,"Desde Totolotlán al sureste y hasta el Arroyo del Osorio pasando por el Puente Grande, el vado, Puente Rómulo, Colimilla y Presa Intermedia, el paisaje es extraordinariamente bello ofreciendo acantilados, islotes, pedregales, playones, manglares y zonas prácticamente inexplorables. Tallada por el cause del Río Santiago con paisajes y abundante vegetación, los cuales se pueden observar desde los puentes ""Rómulo O'Farril"", ""Fernando Espinosa"" y ""Puente Grande"". Se puede llegar a la Barranca por el camino a la Colimilla y por el de Manantlán.",20.512409,-103.175783
Barranca Oblatos-Huentitán,(33) 3674-0525,,"Al norte del municipio de Guadalajara, entre los límites de Tonalá, Zapotlanejo, Ixtlahuacán del Río y Zapopan. Zona Huentitán
Guadalajara, Jalisco. ",Lunes a Domingo de 6:00 a.m. a 7:00 p.m.,"La barranca Oblatos-Huentitán se ha visto envuelta en diversos sucesos de gran interés en la historia de Guadalajara. Desde tiempos de la conquista, se produjeron combates entre los indios de Huentitán y los españoles. También fue lugar de batallas durante la revolución y la cristiada. ?

En el fondo de la barranca existen dos localidades semiabandonadas llamadas: Arcediano y Las Juntas. Debido a su ubicación geográfica, alberga una gran diversidad biológica, siendo considerada corredor biogeográfico, ya que presenta tres tipos de vegetación: bosque tropical caducifolio, bosque de galería y vegetación secundaria. Asimismo, existen en la zona varias especies endémicas de flora y fauna, lo anterior la convierte en un lugar frecuentado por renombrados investigadores tanto nacionales como internacionales. 

Por lo antes mencionado, en 1995 se creó el programa ""Rescate de la barranca Oblatos-Huentitán"" a cargo del municipio de Guadalajara, quedando sujeta a los siguientes usos: ecoturismo, deporte, educación ambiental y desarrollo comunitario. Fue declarada área natural protegida, el 5 de Junio de 1997, bajo la categoría de “Zona Sujeta a Conservación Ecológica”, en su porción correspondiente al municipio de Guadalajara. 

Por otra parte, los visitantes a la barranca de Oblatos-Huentitán estimados en 5000 personas semanales, bajan y suben ésta con la finalidad de incrementar su condición física, así como realizar un día de campo en las orillas de los Ríos Santiago y Verde localizados en el fondo del cañón. 

Un atractivo más son las ruinas de la hacienda “La Casa Colorada” y el puente colgante “El Arcediano” que data de 1893 y fue entrada a Guadalajara. ",20.738616,-103.306675
Bosque de La Primavera,,,"Km. 20 de la Carretera Guadalajara-Nogales. Zapopan, Jalisco. ",,"Localizado en el kilómetro 20 de la carretera Guadalajara-Nogales No. 15. Esta enorme zona arbolada que cubre los cerros al poniente de a mancha urbana y la limita, constituye sin duda alguna ""El pulmón de la Ciudad"". En él encontramos distintos balnearios y el río caliente de agua hipertermal, zonas de campismo y además se puede practicar el excursionismo, así como distintos juegos al aire libre.",20.641298,-103.557129
Bosque Los Colomos,(33) 3641-3804 ,,"El Chaco 3200, Colinas de San Javier. Zapopan, Jalisco. ",Lunes a Viernes de 6:00 a.m. a 8:00 p.m. Sábado y Domingo de 6:00 a.m. a 7:00 p.m.,"Desde tiempos inmemorables ha desempeñado un papel importante en el crecimiento de la ciudad, debido a que se encuentra en una de las zonas de mayor plusvalía resultando imposible conservar su superficie original. Fue una de las principales fuentes de abastecimiento de agua de nuestra ciudad, y en la actualidad sigue brindando ese vital líquido a algunas colonias aledañas. Actualmente cuenta con una superficie de 92 hectáreas y por los servicios que presta se encuentra dividido en dos secciones. En la primera, cuya entrada es por la calle del Chaco, hay un área cercada con eucaliptos y bajo su sombra encontramos los comedores familiares, propios para realizar un día de campo. Asimismo, los que asisten cotidianamente a este parque utilizan la pista pavimentada para caminar o correr, inmersa en las grandes extensiones arboladas de pino. ?

El “jardín japonés”, denominado así por ser una réplica de un jardín ceremonial de gran tradición en Japón, nos invita a la contemplación y al deleite del sonido del agua. Al centro de esta sección, encontramos un lago artificial donde podemos admirar diferentes especies de aves y anfibios. Continuando por el recorrido llegamos a “las pérgolas”, que es un espacio reservado para múltiples funciones y en donde se lleva a cabo mes a mes, el programa “Conociendo México” y a través de un estado de la República, conocemos de su folklore, gastronomía, música, así como una muestra y venta de su artesanía. Por último, “el castillo”, es un centro de arte y cultura en donde se imparten diversos cursos. 

En la segunda sección se ubican las zonas para acampar y su actividad predominante es el atletismo; también aquí se puede alquilar un caballo y disfrutar de un recorrido montado en él. El visitar el jardín típico mexicano, identificando las diversas especies de cactus y suculentas nos puede resultar muy interesante.",20.708241,-103.394684
Cerro de la Campana,,,"Salida al Rancho de la Cruz. Tonala, Jalisco.",,"Está ubicado al lado oriente de la población. Se llega por la salida al rancho de la Cruz. Lugar donde se encuentra la ""Piedra Campana"", llamada así porque al golpearla imita el sonido de una campana, se puede llegar a ella por una vereda desde la autopista. ",,
Cerro de la Reina,,,"Calle el Cerrito. Entre las Calles: Hidalgo y Obregón. Tonala, Jalisco.",,"Anteriormente se le llamaba cerro del Ombligo, mirador natural 2,500 mts. de altura, donde se puede admirar la ciudad de Guadalajara, la barranca del río Santiago y la inmensa meseta de los Altos de Jalisco. También es punto clave para la observación de fenómenos astronómicos como los eclipses de sol y el cometa Halley; en la cima de cerro se encuentra el monumento a la reina Cihualpilli y la capilla de piedra de castilla dedicada a la Virgen de Guadalupe. Es llamado Cerro de la Reina por que al llegar los españoles a Tonalá gobernaba al pueblo el cacique Cihualpilli que tenia su adoratorio en este cerro.",20.634692,-103.239405
El Centinela ,,,"Por el periférico tomar la salida Las Cañadas-Bosque de San Isidro hasta el kilómetro 3.5. Zapopan, Jalisco.",,"En 1967, Don Guadalupe Zuno Hernández donó 150 hectáreas degradadas con la finalidad de lograr su restauración, debido a que el bosque original que existió hasta el siglo XVIII en el Centinela fue devastado por la población para uso de combustible, por su cercanía a la ciudad de Guadalajara. ?

A partir de los años 60’s y hasta la fecha se han venido realizando diversas reforestaciones con especies tales como eucalipto, pino, cedro blanco, fresno, casuarina y colorín, a cargo de las siguientes instituciones: la Secretaría de Agricultura y Ganadería, la Comisión Forestal y de la Fauna y la Universidad de Guadalajara. El bosque que disfrutamos hoy día cuenta con una superficie de 107 hectáreas, en él encontramos además de las especies mencionadas, una plantación de pino joven, mezclado con encino y árboles de talla pequeña de tepame, huizache y ceiba. En este espacio boscoso, el visitante puede gozar de un día de campo en compañía de su familia, caminar o correr por entre los árboles respirando aire puro y montarse en su bicicleta; o bien, tener una visita guiada apreciando la belleza natural.",20.763257,-103.375382
El Parián,,,"Calle Juárez. Entre Herrera y Cairo e Independencia. Tlaquepaque, Jalisco.
",,"Sin duda alguna es el sitio que más distingue a esta hermosa Villa; ahí, en ese singular recinto, construido hacia 1878, se encuentra la máxima expresión de folklore y esparcimiento en un estallido de fiesta permanente. Se le ha considerado como el centro de convivencia familiar que reúne la singular alegría de Tlaquepaque, música, comida, bebida y venta de artesanías, y ha hecho que su fama rebase muchas fronteras y sea lugar preferido de nuestros visitantes. Fue remozado totalmente en 1978 y culmina 600 mts. de adoquinamiento en barro prensado.",20.636921,-103.313869
Glorieta Chapalita,,,"Av. Guadalupe, Colonia Chapalita. Guadalajara, Jalisco.
",,"Este parque es muy visitado por las tardes, pero sobre todo los domingos. Tiene diferentes juegos infantiles y área arbolada y de jardín. Numerosos vendedores de antojitos y golosinas hacen la delicia de chicos y grandes: algodones, paletas, cacahuates, elotes, obleas, morelianas, frutas, etc.",20.666326,-103.402741
Jardín de Guadalajara y España,,,"Morelos y Belén, Colonia Centro. Guadalajara, Jalisco.
",,"En este punto fue fundada Guadalajara oficialmente en 1542, situándose aquí las primeras oficinas municipales de la Ciudad frente al templo y exconvento de San Agustín. En el jardín se encuentra un cuadro en relieve de metal, honrando a Iñigo López de Mendoza, un aristócrata español y literato del siglo XV con la siguiente inscripción ""La ciudad de Guadalajara de México a Don Iñigo López de Mendoza, Marqués de Santillana, insigne estadista, clásico de las letras castellanas y preclaro hijo de Guadalajara de España"". También se encuentra un mosaico representando la tumba de un caballero español. En ambos casos no se conoce la razón del porqué están honrados ambos personajes en este jardín. A un costado de la Iglesia se encuentra un edificio que en el siglo XVI fue un monasterio y actualmente es la Escuela de Música de la Universidad de Guadalajara. Una vez a la semana, en período de clases, los estudiantes dan conciertos. ",20.676663,-103.344953
Jardín de San Francisco de Asís,,,"Av. 16 de Septiembre, Zona Centro. Entre Prisciliano Sánchez y Miguel Blanco. Guadalajara, Jalisco.",,"Conserva la atmósfera del viejo centro de la Guadalajara romántica y porfirista, se puede contemplar la arquitectura del Templo de San Francisco y debido a su privilegiada ubicación es lugar preferido por los enamorados y personas de edad avanzada.",20.672146,-103.346664
Jardín de San Sebastián de Analco,,,"Calle Cuahutémoc, Colonia Barrio de Analco. Guadalajara, Jalisco.
",,"Este lugar se engalana con dos interesantes esculturas en bronce de héroes indígenas: una representa a Cuauhtémoc, que lleva en las manos escudo y mazo. La otra escultura, de cuerpo entero igual que la anterior, es un homenaje al valeroso guerrero Tenamaztli, caudillo de la tribu cascana que combatió a los españoles invasores de la región de la actual Guadalajara. ",20.667192,-103.342764
Jardín del Carmen,,,"Av. Juárez, Zona Centro. Cruza con 8 de julio. Guadalajara, Jalisco.
",,"Es un antiguo y tradicional jardín arbolado, sus andadores confluyen en una antigua fuente de cantera y un busto de bronce del compositor Guzmanense José Rolón así como también el monumento al Padre Cuellár.",20.675022,-103.352388
Jardín del Museo Arqueológico,,,"Av. 16 de Septiembre. Cruza con Calzada del Campesino. Guadalajara, Jalisco. 
",,"Situado en las inmediaciones de la Casa de la Cultura Jalisciense, aloja algunas piezas de cerámica, oro y plata de las culturas del Occidente Prehispánico. En este lugar se colocaron en 1958, 24 fustes jónicos y toscanos, se encuentra también el busto de bronce del genial paisajista Jalisciense Gerardo Murillo ""Dr. Atl"".",20.662585,-103.349251
Jardín del Santuario,,,"Av. Alcalde, Zona Centro. Entre  Juan Álvarez y Manuel Acuña. Guadalajara, Jalisco.
",,"En el se yergue, enorme como su benemérita obra la Estatua de Fray Antonio Alcalde, de cantera gris, sobre el elaboradísimo pedestal del mismo material. Se encuentra situado frente al Santuario de Nuestra Señora de Guadalupe.",20.684043,-103.348238
Jardín Hidalgo,,,"Independencia. Entre las Calles: Francisco I. Madero y Prisciliano Sánchez. Tlaquepaque, Jalisco.
",,"Tranquilo lugar de esparcimiento de la población, data de 1951 y con su kiosco de cantera y sus fuentes, proyecta la imagen amable de Tlaquepaque con la alegría de sus festivales populares dominicales y las pastorelas y el nacimiento monumental en la época decembrina. Aquí se encuentra el monumento a Fray Luis G. Arguello. Se reacondicionó en 1990. Además se encuentra una cabeza de águila de granito que conmemora la ruta de Don Miguel Hidalgo.",20.639612,-103.311814
Jardín José Clemente Orozco,,,"Av. Vallarta. Entre las Calles: López Cotilla y Aurelio Aceves. Guadalajara, Jalisco.
",,"Con bancas, jardineras, fuente y una estatua de José Clemente Orozco obra del escultor tapatío Miguel Miramontes, este jardín representa uno de los espacios mas románticos y tranquilos que visitar en la ciudad Frente a este jardín se encuentra la que fuera casa y taller de este gran pintor, construida por el Ing. Edmundo Ponce Adame.",20.674342,-103.385494
Jardín San Jorge,,,"Diagonal San Jorge 40, Colonia Vallarta San Jorge. Entre  Av. Inglaterra y Alejandro. Guadalajara, Jalisco.
",,"En este apacible jardín que rodea al templo del mismo nombre, se encuentran trece bustos en bronce sobre bases de cantera, de obispos y clérigos que se distinguieron por su importante labor humanista. Entre ellos están el de Don Juan Cruz Ruiz de Cabañas y Crespo, fundador de la Casa de La Misericordia, llamada después Hospicio Cabañas; Fray Antonio Alcalde, gran benefactor de esta ciudad; Juan Ruiz Colmenero, maestro e indigenista. También se observa aquí la escultura del legendario y medieval mártir que da nombre a la colonia San Jorge, elaborada en polvo de mármol, sobre pedestal del mismo material.",20.676141,-103.401156
Los Portales,,,"Av. 16 de Septiembre, Zona Centro. Entre las Calles: Pedro Moreno y Colón. Guadalajara, Jalisco.
",,"Diez portales tradicionales engalanan el centro de la ciudad, los cuales han sido el corazón de la actividad comercial y social de la urbe. El portal más antiguo se encuentra frente a Palacio de Gobierno que data del siglo XVI, y en él se hospedaron los primeros oidores cuando en 1560 se trasladó la Audiencia, de Compostela a Guadalajara. A fines del mismo siglo XVI se construyó el portal de los Agustinos, llamado así porque estos frailes lo usufructuaban, y aún se conserva un escudo en relieve de esta orden, que podemos observar a medio portal, en la planta alta de la fachada, este portal, hoy es llamado de Allende. El portal Quemado o General Bravo data de 1604; se sitúa al sur de la Plaza de Armas, recibiendo el primer nombre por haberse incendiado dos veces, siendo reedificado en 1734. Algunas secciones de los portales guardan en la parte alta sus fachadas primitivas, con balcones de cantera y barandal de hierro, siendo el mejor conservado que se encuentra por la calle Colón.",20.675506,-103.348225
Metropolitano,(33) 3673-9490,(33) 3673 9489,"Av. Beethoven 5800, La Estancia. Zapopan, Jalisco. 
",Lunes a Viernes de 6:00 a.m. a 7:00 p.m.,"El objetivo de este sitio es preservar una gran extensión de espacio abierto como reserva ecológica, con funciones recreativas, y deportivas para los habitantes de esta gran metrópoli. Cuenta con una superficie de 119 hectáreas, de las cuales el 75% corresponden a áreas arboladas jóvenes con especies de fresnos, ficus, galeanas y casuarinas. ?

Para facilitar su funcionamiento se encuentra zonificado en A y B. La zona A tiene un sistema de riego, mientras que la B, que circunda a la A, constituye un sitio ideal de reunión y convivencia familiar los días festivos y fines de semana, debido a que existen núcleos de estancias que incluyen un andador, mesa central delimitada por bancas de material recubierto con azulejo y un asador. Además, de un área de juegos infantiles donde los niños pueden divertirse vigilados por sus mamás y papás mientras preparan la comida o simplemente descansan. 

Los visitantes pueden disfrutar de un recorrido en el tren panorámico, asimismo pasear en los circuitos destinados para ello, en la bicicleta de su propiedad o alquilar una. Con respecto al deporte, se realizan dos actividades especiales cada año: la “Carrera de la Amistad” en Febrero y la “Carrera de la Revolución” en Noviembre en las cuales, pueden participar niños, jóvenes y adultos.",20.67113,-103.438007
Parque de la Revolución,,,"Av. Juárez. Entre las Calles: Av. Federalismo y Penitenciaría. Guadalajara, Jalisco.
",,"Se encuentra asentado en los terrenos donde hasta 1935 funcionó la Penitenciaría de Escobedo. El lugar cuenta con la estatua de bronce del Apóstol y mártir de la Revolución mexicana, Fco. I. Madero y un monumento dedicado al caudillo y legislador Venustiano Carranza, que datan de 1959. Un tercer monumento, sobre la Av. Federalismo, homenaje a los Precursores del obrerismo mexicano: Ricardo Flores Mágon, Manuel M. Diéguez y Esteban Vaca Calderón, construido en 1976. Es el único enclavado en el centro de la ciudad, con frondosos árboles y banderas, lugar ideal para descansar. La última remodelación se realizó con motivo de la inauguración del tren ligero Línea 2",20.67526,-103.355609
Parque de la Solidaridad,(33) 3608-6611,,"Av. Malecón 300, Benito Juárez. Guadalajara, Jalisco.",,"El parque Solidaridad cuenta con 19.5 hectáreas consideradas zona de alta densidad forestal. Además de los estanques y pequeños espejos de agua que existen en el parque se encuentran algunas especies.?

Construido sobre el lecho de la antigua presa de Osorio este amplio parque cuenta con una profusa vegetación y áreas de singular belleza, aspectos que lo convierten en el sitio ideal para el descanso y la recreación.",20.667657,-103.267788
Parque de la Solidaridad Iberoaméricana,,,"Av. Malecón, Colonia Unidad Habitacional Benito Juarez. Guadalajara, Jalisco. ",Martes a Domingo de 6:30 a 7:00 p.m.,"Este magnífico parque recreativo tiene una extensión de 110 hectáreas y es considerado como uno de los más grandes de América Latina. Se construyó en el área que ocupaba anteriormente la presa Osorio. Fue inaugurado el 18 de julio de 1991 con motivo de la Primera Reunión Cumbre de Jefes de Estado y de Gobierno de los Países Iberoamericanos. Cuenta con un lago en la parte que se conserva de la presa, extensas áreas verdes con césped y arboledas, un tren panorámico que hace un recorrido de 30 minutos, pista de bicicross y motocross, estadios de fútbol y béisbol, domo de box, lucha libre, y otros deportes, así como diversas exposiciones, una plaza de la bandera, ubicada en la entrada principal, y al centro un monumento de acero. Al centro del parque se encuentra un puente que marca la división de Guadalajara y Tónala.",20.667561,-103.267794
Parque del Deán antes de la Liberación,,,"Ubicado sobre la Calzada Lázaro Cárdenas, Colonia Nogalera. Entre las Calles: Lázaro Cárdenas y Ramal de Ferrocarril. Guadalajara, Jalisco.",Lunes a domingo de 07:00 a 19:00 hrs.,"El parque de la liberación es considerado como uno de los principales parques de Guadalajara. Está constituido de 6 hectáreas de áreas verdes, donde podemos observar fresnos, eucaliptos, tabachines, limones, naranjos, etc. Cuenta con un pequeño lago artificial con puente de piedra de cantera que proporciona una vista muy agradable al lugar. Ahí también se localiza un monumento en bronce al padre de la Patria, Don Miguel Hidalgo y Costilla, quien sostiene en las manos las cadenas con que simbólicamente abolió la esclavitud en esta ciudad en 1810. Cuenta con 2 campos de fútbol, 5 canchas de básquetbol, juegos infantiles, Museo del ferrocarril (tren de vapor en exhibición) y alberca.",20.636459,-103.346254
Parque Lic. José Jesús González Gallo,,,"Domicilio:Av. González Gallo, Zona Tecnológico. Entre las Calles: Salvador López Chávez y Dr. R. Michel. Guadalajara, Jalisco.
",Lunes-Domingo de 07:00 a 19:00 hrs.,"Acceso por una explanada con esculturas geométricas, el áreas boscosa es de aproximadamente 2 hectáreas con andadores empedrados, donde se puede disfrutar de la frescura que dan una gran variedad de árboles, como lo son: pinos, fresnos, naranjos, limones, guayabos, capulines, duraznos y eucaliptos. Cuenta con espacios para comer, juegos infantiles, áreas verdes, kiosco, vigilancia y sanitarios. Se complementa con instalaciones deportivas para la práctica de fútbol, baloncesto, voleibol, tenis y frontón. Dentro del parque hay una área destinada a viveros, donde se producen árboles y flores, que son también para venta.",20.647443,-103.337123
Parque Mirador Dr. Atl,,,"Km. 15 de la carretera a Saltillo. Zapopan, Jalisco. ",Lunes-Domingo de 10:00 a 18:00 hrs.,"Localizado en el kilómetro 15 de la Carretera a Saltillo. Es un sitio donde se puede admirar la caída de agua ""Cola de Caballo"" con aproximadamente 150 metros de caída formada con la corriente del arroyo Blanco y que al caer se une al Río Santiago. Cuenta con tres miradores volados construidos al borde de la Barranca del Río Santiago. Además cuenta con un restaurante y estacionamiento. Como parte de las actividades son los días de campo con sus instalaciones especiales para ello. En el Parque se encuentra la escultura en cantera del pintor tapatío Gerardo Murillo, mejor conocido como Doctor Atl, paisajista.",,
Parque Mirador Independencia o Barranca de Huentitán,,,"Tramo final de la Calzada Independencia. Guadalajara, Jalisco. ",Lunes-Domingo de 06:00 a 19:00 hrs,"Impresionante lugar construido a la orilla de la Barranca de Oblatos o Huentitán de aproximadamente 500 mts. de profundidad, formada por el cauce del Río Santiago, cuenta con hermosas áreas verdes, área de juegos infantiles, teatro al aire libre, facilidades para pasar un día de campo y miradores para admirar la belleza de la Barranca. Sitio utilizado por gran cantidad de deportistas aficionados a la caminata de montaña, donde se observa el cauce del Río Santiago y su afluente el río Verde. Cuenta con una serie de espectaculares miradores volados desde los cuales es posible admirar toda la belleza paisajista de la Barranca de Huentitán el Bajo.",20.740171,-103.310344
Parque Morelos,,,"Calz. Independencia Norte y Juan Manuel. Guadalajara, Jalisco.
",,"Poblado de árboles centenarios, con espléndidas fuentes y bien trazadas calzadas interiores entre cuidados jardines, forma parte de lo que era la Alameda, es un parque de gran atracción popular. Al centro del parque, sobre la Calzada Independencia Norte, se encuentra la escultura del General y Cura José María Morelos, realizada en 1967, que plasma el gran caudillo libertario en brioso corcel, con sus arreos insurgentes que es de tamaño natural y descansa en un pedestal de mármol y cantera. A un lado se inicia la Calzada de los Insurgentes que contiene 14 bustos de los Insurgentes mexicanos más destacados como Abasolo, Mina, Guerrero, Aldama, Allende, etc... ",20.680229,-103.340589
Parque Oblatos,,,"Belisario Domínguez. Guadalajara, Jalisco.",,"Esté cuenta con una carretera empedrada por la que se puede transitar descansadamente (a pie) y una pista para trotar entre plantas silvestres, además de algunos miradores desde donde es posible observar de lejos la hidroeléctrica de Las Juntas y el Puente de Arcediano. Al final de la carretera podrá usted encontrar Los Baños Termales de Oblatos, signo de la actividad volcánica que todavía subyace en la región de Guadalajara. Hace algunos años eran un punto muy visitado por los bañistas. Lamentablemente los baños están fuera de servicio y se prohibe la entrada ya que esta área es determinada por Protección Civil como zona de alto riesgo por deslaves y derrumbes.",20.6994133,-103.2532212
Parque Roberto Montenegro,(33) 3689-1239,,"Carretera a Chapala, Colonia El Salto. Entre las Calles: Medrano y Circ. San Jacinto. Tlajomulco de Zuñiga, Jalisco.",Martes- Domingo de 8:00 a 18:30 hrs.,"Cuenta con excelentes instalaciones como: un Restaurant ""Amarake"", campo de golf, canchas de futbol, 2 de Volibol, 2 de Básquetbol, áreas recreativas, juegos para niños, comedores y un hermoso estanque con patos. En el transcurso del año se realizan diferentes eventos.",20.573854,-103.315902
Parque Roberto Montenegro ,,,"Carretera a Chapala Km 11. El Salto, Jalisco.",Martes a Domingo de 7:00 a.m. a 6:30 p.m.,"Su construcción se inició en 1971, pero hasta 1977 no fue puesto en servicio. Su superficie abarca 48 hectáreas en las cuales encontramos extensas áreas de pasto muy cuidado delimitadas por hileras de frondosos árboles de especies como casuarinas, eucaliptos, fresnos y jacarandas, entre otras. ?

Los visitantes pueden disfrutar de un día de campo, utilizar los juegos y las canchas deportivas; además de realizar fiestas familiares; ya que el lugar, debido a su diseño y extensión, se presta para ello. Casi todo el perímetro del parque está rodeado por árboles y en su interior encontramos andadores por donde los asistentes pueden realizar recorridos en el tren panorámico, en bicicleta o, sencillamente, caminando. ",20.57397,-103.316132
Parque San Rafáel,,,"San Rafael, Colonia San Rafael. Entre las Calles: Medrano y Circ. San Jacinto. Guadalajara, Jalisco.",Lunes-Domingo de 07:00 a 19:00 hrs.,"Medrano y Circ. San Jacinto
Descripción: Con una extensión de 6 hectáreas, ofrece grandes áreas verdes, donde podemos observar una gran cantidad de árboles, como fresnos, eucaliptos, jacarandas, hules, casuarinas, pirules, capulines, cedros, truenos, naranjos y paraísos, tienen instalaciones acondicionadas para día de campo, 3 canchas de fútbol, 1 campo de béisbol, baloncesto, 2 canchas de voleibol, 3 canchas de frontón, alberca, chapoteadero, zona de tiro con arco juegos infantiles, 1 gimnasio para boxeo, 1 cancha de fútbol rápido, pista de terraceria de 820 metros, y pista de bicicross. Su nombre oficial es Unidad Deportiva Plan de Ayala.",20.652704,-103.297899
Paseo Teopitzintli,,,"Zapopan, Jalisco.",,"Paseo peatonal adoquinado, tranquilo y fresco que lleva del Arco de Ingreso a la Plaza de las Americas, pasando por un costado de la Plaza Cívica y su zona comercial. Teopitzintli es el nombre de la antigua deidad del dios niño esposo de la diosa del maíz Centeotl, que era adorada por los primitivos habitantes de esta región.",20.801675,-103.494
Plaza Benito Juárez,,,"Av. 16 de Septiembre y Washington. Guadalajara, Jalisco.
",,"Tiene una gran explanada de 40,000 mts2. circundada por jardineras, se edificó en 1960 para conmemorar el centenario de las Leyes de Reforma. Sobre un extremo se encuentra el Hemiciclo al Lic. Benito Juárez ""Benemérito de las Americas"", y sobre un pedestal de granito negro una Estatua de bronce de él, custodian a este monumento, réplicas del Águila que aparecen en el Escudo Nacional. En la parte posterior se observan las veintiún astabanderas americanas sobre pedestales de cantera donde están grabados los escudos de armas de cada país y al centro del semicírculo, un interesante cancel escultórico en bronce del artista José Chávez Morado, en el cual se presentan alegorías patrióticas de la Guerra de Reforma.",20.658797,-103.35091
Plaza Brasil,,,"Calz. Independencia Norte, Colonia Independencia. Entre las Calles: Tikal y Mitla.  Guadalajara, Jalisco.
",,"Se encuentra ubicada sobre la Calzada Independencia Norte, Tikal y Mitla, en el sector libertad, está situada entre el Estadio Jalisco y la Plaza de Toros Nuevo Progreso. Consta de un área de jardín con césped y árboles que ostentan al centro un conjunto escultórico en bronce, formado por tres futbolistas; uno de ellos, el portero saltando en actitud de disputar el balón en una expresiva jugada de este deporte. La plaza está dedicada como un reconocimiento de la ciudad de Guadalajara al pueblo de Brasil por su destacada participación en el IX Campeonato Mundial de Fútbol México '70; evento en el que el equipo brasileño conquistó de forma definitiva la Copa Jules Rimet.",20.704134,-103.326196
Plaza Cívica,,,"Zapopan, Jalisco.",,"Amplio espacio destinado a la celebración de actos civico-conmemorativos. Se ubica frente al Palacio Municipal y esta plaza una escultura de bronce con la figura de una águila devorando una serpiente, que es el símbolo patrio y tras el águila se levanta una astabandera de 7 metros de alto.",20.721169,-103.389858
Plaza de Armas,,,"Av. 16 de Septiembre, Zona Centro. Guadalajara, Jalisco.",,"Bella y pintoresca plaza que fue el centro de reunión de la sociedad tapatía hasta principios del siglo XX, y hoy ofrece al visitante una magnífica visión del Palacio de Gobierno, el Sagrario y Los Portales. Dicha plaza cuenta con un hermosísimo kiosco francés ""Art Nouveau"" el cual data de 1909, sostenido por 8 cariátides (figuras femeninas con el torso desnudo) que representan instrumentos musicales distintos, su techo elaborado en finas maderas, forman una especial caja de resonancias. En los ángulos de la plaza, encontramos las cuatro estaciones del año, representadas por bellas esculturas grecolatinas. Los Martes, Jueves y Domingo por las tardes se lleva a cabo las tradicionales serenatas con la presentación de bandas de música de reconocido prestigio, como la banda del Estado y la Municipal. Recién fundada la ciudad aquí estuvo una fuente para que los vecinos se proveyeran de agua, luego se instaló en 1713 una plaza de toros. ",20.676209,-103.346951
Plaza de la Bandera,,,"Calzada del Ejército y Revolución. Guadalajara, Jalisco.
",,"Consta de 3 secciones; en una hay jardines y una explanada donde se instalan juegos mecánicos. En la sección oriente, los jardineros han hecho gala de su habilidad formando figuras de personas, edificios y animales, al podar los arbustos ahí plantados. La tercera sección es una Glorieta donde se encuentra una Gran Águila de Cantera y un Asta, que marca el inicio de la ruta que siguió el cura Miguel Hidalgo, en su lucha por la Independencia de México. Hay además nueve arcos de cantera que pertenecieron a la antigua garita de San Pedro Tlaquepaque y una cabeza de águila en granito que conmemora la ruta de Hidalgo. ",20.66461,-103.333009
Plaza de la Reforma (Santo Domingo),,,"Av. Alcade, Colonia Centro. Entre las Calles: Reforma y San Felipe. Guadalajara, Jalisco.
",,"Conocida anteriormente como Plaza de Santo Domingo por estar ubicado frente al que fuera templo y convento del mismo nombre, durante los años de 1858 y 1860; este sitio sirvió como campo de batalla durante la Guerra de Reforma, quedando semidestruido lo que fuera el templo y convento, en su lugar, el año de 1876 se construyó el actual templo de San José, por lo que la plaza se llamó igual. En homenaje a los reformistas jaliscienses y a la batalla que se sostuvo aquí fue nombrada Plaza de la Reforma. Al centro resalta la gran estela de cantera que lleva grabados los nombres de los reformistas Emeterio RObles Gil, Gregorio Dávila y Jóse Luis Verdía, entre otros. A un costado de la explanada, se encuentra el busto en bronce del General José Silverio Núñez, quien murió el 4 de Octubre de 1858 en defensa de la Reforma. También luce una fuente circular en cantera hecha por el Arq. Julio de la Peña, quien diseñó entre otras obras el Mercado Corona.",20.680038,-103.347262
Plaza de la República,,,"Av. México. Entre las Calles: Av. Chapultepec y Av. Americas. Guadalajara, Jalisco.
",,"Fue construida para conmemorar el Centenario del triunfo de la República después de la intervención francesa (1867-1967). Como figura central de la Plaza se yergue una de las más hermosas esculturas que en México representan a la Patria, en forma de una espléndida mujer, semicubierta por larga túnica y en actitud de avanzar y hablar con elocuencia a sus hijos, en la mano izquierda lleva flotante el emblema nacional. Elaborada en bronce por el escultor tapatío Juan José Méndez, apoyada sobre el pedestal de cantera que lleva al frente el escudo nacional y las inscripciones MEXICO, 1867-1967. Al frente de la escultura se hallan treinta y dos estelas con nichos de cantera que contienen los emblemas heráldicos de cada entidad federativa del país. En uno de sus extremos se eleva un obelisco en memoria al general revolucionario Andrés Figueroa.",20.67914,-103.370367
Plaza de las Americas,,,"Frente a la Basílica de Zapopan. Zapopan, Jalisco.
",,"Ubicada frente a la basílica; está adoquinada con cantera rosa; ostenta un bonito kiosco también en cantera con cuatro arcos falsos y cuatro sostenidos por dobles columnas; cuatro escalinatas de acceso y balaustrada alrededor. Cuatro grandes fuentes flanquean a dos gallardas esculturas en bronce, símbolos del dios y la diosa del maíz, obra artística del notable y prestigiado escultor Juan Méndez. Hay áreas verdes con cuatro fuentes que tienen esculturas en bronce de niños jugando, obra del autor antes citado. Cuenta también con bancas de hierro forjado y de cantera, decoradas con vistosos relieves, algunos candiles y astas para las banderas americanas. A un costado de esta Plaza se ven dos edificios nuevos, de estilo colonial mexicano, con columnas de cantera, arcos de medio punto y ventanas con balcón.",20.720818,-103.391084
Plaza de los Mariachis,,,"Calzada Independencia. Entre las Calles: Javier Mina y Alvaro Obregón. Guadalajara, Jalisco.",Las 24:00 hrs,"El nombre oficial de este hermoso Rincón Tapatío es el de ""Pepe Guízar""; fue construido especialmente para ser lugar de reunión de los Mariachis, donde se encuentran las 24 horas recuerda la Guadalajara de los años treinta. Decoran esta plaza una fuente circular de cantera, un portal de edificio colonial con arcos de medio punto sobre columnas de cantera, así como un busto en bronce de Silvestre Vargas, creador del famoso ""Mariachi Vargas de Tecalitlán"". Una placa colocada en la pilastra del corredor, hace público homenaje al compositor Pepe Guízar, creador de la mundialmente conocida canción ""Guadalajara"". ",20.675072,-103.341442
Plaza Guadalajara,,,"16 de Septiembre, Hidalgo y Morelos, Zona Centro. Guadalajara, Jalisco.",,"Anteriormente la Plaza de los Laureles ó Plaza del Ayuntamiento, se le dio el nombre actual en conmemoración al 450 aniversario de la Fundación de Guadalajara. Es de planta cuadrangular, con jardineras-bancas y pequeños árboles de ornato. Al centro de ésta se aprecia una fuente sobre basamento de planta circular, con escalinatas, que conmemora la fundación de la Ciudad a través del Escudo que se levanta en su centro formado por una esfera, sobre la cual se encuentran cuatro leones rampantes alrededor de un árbol, con una banderita sobre la fronda. Esta fuente fue construida en el período comprendido de 1953 a 1956, y diseñada por el Arq. Ignacio Díaz Morales. Desde esta plaza podemos observar: La fachada del Palacio Municipal; La fachada de la Catedral; La fachada del Sagrario; Los arcos de los antiguos Portales de Guadalajara. Bajo esta plaza se encuentra un estacionamiento subterráneo. ",20.676876,-103.347852
Plaza Liberación,,,"Av. Hidalgo, Morelos, Liceo, Degollado., Zona Centro. Guadalajara, Jalisco
",,"Es conocida popularmente como ""Plaza de las Dos Copas"" desde que se construyó en 1952, debido a dos fuentes con esa figura. Es lugar tradicional de reunión de los Tapatíos. Aquí se encuentra un Monumento - Estatua de Don Miguel Hidalgo y Costilla de 4 metros de altura, sosteniendo en sus manos una cadena rota, representando la Abolición de la Esclavitud. En el extremo Este de las cuatro plazas que forman la cruz; obras recientes la han dotado de un estacionamiento subterráneo para que el visitante pueda llegar al corazón mismo de Guadalajara. Desde esta plaza se contemplan en toda su magnificencia algunos de los más importante edificios de la ciudad, con fachadas de cantera: La Catedral con su cúpula y esbeltas torres, la fina cúpula del Sagrario, la fachada lateral del Palacio de Gobierno con las elegantes portadas de sus ventanales y figuras de guerreros que rematan en el techo, por el lado Norte la fachada lateral del Museo Regional y Palacio Legislativo Judicial, y por último al Este el Teatro Degollado. ",20.676957,-103.34591
Plaza Tapatía,,,"Parte posterior al Teatro Degollado, Zona Centro. Guadalajara, Jalisco.",,"Se inauguró el 5 de febrero de 1982. Ocupa nueve manzanas completas con una superficie aproximada de 70,000 metros cuadrados. Tiene dos andadores, uno en la parte posterior del Teatro Degollado y el otro a un costado del mismo, por la calle Morelos. Terminando en el Instituto Cultural Cabañas. Es la conjunción de: Plaza Fundadores, luce un conjunto escultórico en bajo relieve creación de Rafael Zamarripa y las esculturas de Beatriz Hernández y Miguel Ibarra. Paseo Degollado, de Plaza Fundadores a la explanada central, con esculturas en piedra de ranas y focas en un sinfín de fuentes. Paseo Morelos, donde se encuentra la fuente de los niños jugando y la escultura del escudo de la Ciudad. Explanada Central, se encuentra la fuente principal de la Inmolación de Quetzalcóatl obra de Víctor Manuel Contreras y a un costado la cabezade Quetzalcóatl. Paseo del Hospicio, frente al Cabañas donde se encuentra ""La Sala de los Magos"" de Alejandro Colunga en 1993. Plaza López Portillo y Weber, a un costado del Cabañas. ",20.676806,-103.340543
Plazoleta de las 9 Esquinas,,,"Colón, Zona Centro. Entre las Calles: Leandro Valle y Galeana. Guadalajara, Jalisco.",,"Es una pequeña rinconada hermosamente remodelada con jardines y fuente, en un sitio a donde convergen cuatro calles citadinas formando las famosas ""Nueve Esquinas"". En este lugar se instala un tradicional mercado de frutas de la temporada. Durante los meses de Mayo y Junio pueden encontrarse las coloridas y deliciosas pitayas. Si usted gusta de los platillos mexicanos, lo invitamos a comer ""Birria"" y ""Barbacoa"" en las fondas, que desde hace muchos años, aquí deleitan el paladar de propios y extraños.",20.670527,-103.348525
Rincón de los Poetas,,,"Corona y Revolución, Zona Centro. Guadalajara, Jalisco.",,"A un costado del templo de San Francisco, en el sitio que ocupó el antiguo convento franciscano, se ubica la plazuela llamada Rincón de los Poetas, donde podemos admirar una lucida fuente de cantera y arcos de medio punto también en cantera. Este sitio resulta muy agradable por su aspecto colonial, ya que se observa el muro del templo con su primitiva piedra labrada. ",20.672155,-103.34721
Rotonda de Los Jaliscienses Ilustres,,,"Av. 16 de Septiembre, Zona Centro. Entre las Calles: Independencia y Av. Hidalgo. Guadalajara, Jalisco.",,"Monumento que data de 1952, consta de 17 columnas estriadas sin base ni capitel que alinea el recinto circular que resguarda 98 urnas, ahí solo se encuentran los restos de Gerardo Suárez, Jacobo Gálvez, Manuel M. Diéguez, Enrique Díaz de León, Ignacio Jacobo Magaña, José Gpe. Zuno Hernández, Ramón Corona y Mariano Otero, todos ellos hombres destacados de la historia de Jalisco, en la Artes, la Ciencia, las letras, a la defensa de principios libertarios que fueron de gran ayuda para el mejoramiento de la ciudad de Guadalajara. Diecinueve grandes estatuas custodian el solemne monumento: El jurista Luis Vallarta, El científico Leonardo Oliva, El poeta Enrique González Martínez, El sabio benefactor Agustín de la Rosa, El compositor Clemente Aguirre, El arquitecto Jacobo Gálvez, El historiador Luis Pérez Verdía, El insurgente Pedro Moreno, El educador Manuel López Cotilla, El reformador Valentín Gómez Farías, El general Manuel M. Dieguez y el pintor José Clemento Orozco.",20.67777,-103.347015
